{
"type": "FeatureCollection",
"name": "Departement",
"crs": { "type": "name", "properties": { "name": "urn:ogc:def:crs:OGC:1.3:CRS84" } },
"features": [
{ "type": "Feature", "properties": { "fid": 1, "DDEP_C_COD": "29", "DDEP_L_LIB": "Finistère", "DREG_L_LIB": "Bretagne" }, "geometry": { "type": "MultiPolygon", "coordinates": [ [ [ [ -3.388025558798094, 47.927036976972694 ], [ -3.391871066866352, 47.920497931441943 ], [ -3.406301244264334, 47.917308412636977 ], [ -3.411356064368074, 47.904806172911258 ], [ -3.402412167904793, 47.885358492647555 ], [ -3.403891423683155, 47.868383538277783 ], [ -3.398383044192464, 47.863104419628336 ], [ -3.408704956301579, 47.863244121490268 ], [ -3.421210672866396, 47.868672012714839 ], [ -3.449854443847359, 47.861327557492181 ], [ -3.448919477299646, 47.848457200484674 ], [ -3.457661791813169, 47.836633346660932 ], [ -3.472800470475736, 47.835832990186617 ], [ -3.48592611441812, 47.825371262855533 ], [ -3.491028365568862, 47.825205705566269 ], [ -3.509121243874785, 47.831569420152285 ], [ -3.519001454358703, 47.839065816688468 ], [ -3.519274003215905, 47.848704430254415 ], [ -3.523004257433212, 47.849146800405457 ], [ -3.53018952206477, 47.857162884854169 ], [ -3.54019900011807, 47.856938238458866 ], [ -3.542022041155663, 47.865623334650671 ], [ -3.544571909089636, 47.857795530164651 ], [ -3.533154142165419, 47.852689724851224 ], [ -3.527863244805015, 47.84436963011288 ], [ -3.540751553849331, 47.835964685342411 ], [ -3.542912990254453, 47.822170817225427 ], [ -3.537762858899066, 47.821510534520499 ], [ -3.536421853842934, 47.813999416176237 ], [ -3.525155273381032, 47.80905641719977 ], [ -3.530100948177756, 47.804472614805952 ], [ -3.521738531197886, 47.802744669603243 ], [ -3.531041663943283, 47.790656677694827 ], [ -3.528690862676272, 47.786904666359135 ], [ -3.533980682058339, 47.77588003470057 ], [ -3.530801903593952, 47.770404094163936 ], [ -3.537218120510775, 47.76354280870931 ], [ -3.567044523563284, 47.768707197481994 ], [ -3.611275232533589, 47.769843982494287 ], [ -3.616175901734576, 47.770036221565498 ], [ -3.648032676992249, 47.776004999822348 ], [ -3.640084922347531, 47.79131475760731 ], [ -3.651950858766996, 47.779259480857547 ], [ -3.668093674254149, 47.780715060361572 ], [ -3.676834820957802, 47.77562744727652 ], [ -3.721349128063308, 47.797428394796803 ], [ -3.722270799544813, 47.802903661305521 ], [ -3.706590616428979, 47.812502600147909 ], [ -3.700283724482232, 47.809070414028795 ], [ -3.699710240004849, 47.817485505486658 ], [ -3.671101413488438, 47.823636895878039 ], [ -3.655723333802654, 47.821433087821219 ], [ -3.650808920377821, 47.82074613536637 ], [ -3.641852178005978, 47.826005864083577 ], [ -3.639574409771565, 47.829025390910552 ], [ -3.651531435360837, 47.822764322601984 ], [ -3.671413218723556, 47.825904359770497 ], [ -3.695167100286943, 47.820590937982693 ], [ -3.694570169780647, 47.830741486052524 ], [ -3.704378065884192, 47.815474713822823 ], [ -3.733345050704382, 47.801317885856115 ], [ -3.743259487000623, 47.816563424754342 ], [ -3.743603631585969, 47.828557398975107 ], [ -3.751634839720583, 47.834426291405777 ], [ -3.745680446691324, 47.842989751442175 ], [ -3.750136539658202, 47.844792201947151 ], [ -3.747719891880864, 47.848048041970856 ], [ -3.747125835983474, 47.85065660579081 ], [ -3.754705640687814, 47.844212453493029 ], [ -3.74959692166703, 47.842447665587116 ], [ -3.758499675290297, 47.836712700250281 ], [ -3.746706502408849, 47.827113774070277 ], [ -3.746334599881223, 47.818599086456167 ], [ -3.756546378536506, 47.817693432851399 ], [ -3.745429547232471, 47.81517363730579 ], [ -3.738437240723942, 47.798974040285735 ], [ -3.760521513500262, 47.78994837547701 ], [ -3.787016424490083, 47.791574631697266 ], [ -3.80038030164582, 47.787798725363039 ], [ -3.807753134508701, 47.78863428513521 ], [ -3.810808035295405, 47.794265030692351 ], [ -3.836095880037954, 47.796474698816333 ], [ -3.850532255811399, 47.793434268693986 ], [ -3.855502454615376, 47.803369591681296 ], [ -3.902724733144856, 47.838572289132038 ], [ -3.897556904978374, 47.846709919774227 ], [ -3.89064347055179, 47.846801013977945 ], [ -3.894661095828487, 47.849726373140712 ], [ -3.878634971496735, 47.859857360235964 ], [ -3.883494587689237, 47.858722483851416 ], [ -3.900438341083716, 47.850804238224626 ], [ -3.910202309569867, 47.852495741955551 ], [ -3.913313804219473, 47.855257247366481 ], [ -3.905423631584465, 47.859400133830476 ], [ -3.906365425328334, 47.862813744530349 ], [ -3.912988344592035, 47.86809638801126 ], [ -3.927459934324617, 47.871468932282568 ], [ -3.933873725790173, 47.880873667676639 ], [ -3.942082081698814, 47.885094268462787 ], [ -3.948108519613859, 47.894178083918064 ], [ -3.946011133088494, 47.904511516314322 ], [ -3.954684995977372, 47.89535976636364 ], [ -3.973083121816836, 47.894898094873149 ], [ -3.977652941498681, 47.908069865801153 ], [ -3.980944817857337, 47.893797173956138 ], [ -3.990192524549705, 47.897193943820781 ], [ -3.986107884952812, 47.890164354374079 ], [ -3.97358860382721, 47.89067576303573 ], [ -3.989810201564782, 47.882588951386118 ], [ -3.978013704916783, 47.855536873838723 ], [ -4.040065821314151, 47.846759717154931 ], [ -4.086660626617674, 47.861937671386237 ], [ -4.047528934863088, 47.852716911333317 ], [ -4.072885949882515, 47.866177713356194 ], [ -4.067177425746519, 47.871302557935536 ], [ -4.075558527684299, 47.866883529691535 ], [ -4.081183957656512, 47.874612650215234 ], [ -4.078779077809395, 47.864556324269437 ], [ -4.086960484259514, 47.865082208549971 ], [ -4.092192721631868, 47.861132642580266 ], [ -4.10090287645822, 47.862104497683127 ], [ -4.102306583921186, 47.870874899294421 ], [ -4.111751201323832, 47.871096713382691 ], [ -4.118368640864298, 47.878366338953619 ], [ -4.114370509029268, 47.882802280969003 ], [ -4.105616067259408, 47.880830891795945 ], [ -4.122496040268712, 47.88728730041187 ], [ -4.124825281968907, 47.891419856630577 ], [ -4.11596277287037, 47.89685648124707 ], [ -4.127975673670314, 47.892963065316451 ], [ -4.141455164003113, 47.899660130387034 ], [ -4.143471163163734, 47.912314923892019 ], [ -4.139199404493159, 47.924792655605103 ], [ -4.131505423916205, 47.924466148212638 ], [ -4.13028326597216, 47.929365829964794 ], [ -4.117476254461055, 47.929512034373268 ], [ -4.108941360946636, 47.936039167546163 ], [ -4.108132068707168, 47.940524871324712 ], [ -4.098196432170224, 47.94104565162128 ], [ -4.079518930277396, 47.935326288941837 ], [ -4.073321183637672, 47.932818105886128 ], [ -4.06929816846927, 47.932997704359025 ], [ -4.094330801839599, 47.941198442534045 ], [ -4.083207502665518, 47.952235202784756 ], [ -4.096508048593723, 47.942494288699955 ], [ -4.109130366482412, 47.942750397109727 ], [ -4.109365096266152, 47.949702930657217 ], [ -4.097614683192229, 47.95254745641143 ], [ -4.09488910478868, 47.962913867323039 ], [ -4.096950109545035, 47.971255645362227 ], [ -4.112588880326272, 47.977184454222929 ], [ -4.116961429971726, 47.984274496247437 ], [ -4.118226796880935, 47.977077412737358 ], [ -4.103318536088745, 47.967779892816012 ], [ -4.110286318590017, 47.963562424521783 ], [ -4.119092323657185, 47.965214819067754 ], [ -4.113057261915414, 47.963159468266376 ], [ -4.11242332081941, 47.955842730185402 ], [ -4.122128180159868, 47.953590875219213 ], [ -4.112299802467844, 47.951422552372208 ], [ -4.112346604694147, 47.936862531606934 ], [ -4.11863148791643, 47.931104486005175 ], [ -4.13279711146324, 47.930559228671491 ], [ -4.132499050451972, 47.925752060128744 ], [ -4.141178303232548, 47.926407103239136 ], [ -4.148315597827934, 47.91126031537236 ], [ -4.146225846982487, 47.897471476982354 ], [ -4.166219560429608, 47.895770599332373 ], [ -4.176131391611523, 47.907137532154422 ], [ -4.17026952505653, 47.894420216877378 ], [ -4.154495378161976, 47.891743199401695 ], [ -4.141220074893257, 47.89532790423646 ], [ -4.123486792195568, 47.884064227069175 ], [ -4.123942597370729, 47.87786456944167 ], [ -4.113880208547196, 47.872151055495173 ], [ -4.113729740737105, 47.861325387756942 ], [ -4.124229519272478, 47.865114571412455 ], [ -4.151311928458115, 47.854832470230306 ], [ -4.162574197006649, 47.849643060712175 ], [ -4.167402461995735, 47.840174714076532 ], [ -4.170176639256152, 47.839841944846626 ], [ -4.166408835459968, 47.85675536219324 ], [ -4.172730819103492, 47.875092819888948 ], [ -4.184573399325568, 47.880900417646039 ], [ -4.198893443269717, 47.86102409502805 ], [ -4.215018202619659, 47.868887629283925 ], [ -4.193879047353759, 47.853171664920652 ], [ -4.183801207507337, 47.838056989498199 ], [ -4.160963517702223, 47.834242973941201 ], [ -4.165040521619201, 47.814057207901669 ], [ -4.173154913749123, 47.813243231462593 ], [ -4.172327295877863, 47.807121560613439 ], [ -4.192364487784734, 47.795605410560242 ], [ -4.208335186063454, 47.801598587505779 ], [ -4.216622773380155, 47.813414859513593 ], [ -4.21984404215748, 47.811155235781349 ], [ -4.212392067718064, 47.796115338443983 ], [ -4.226813261963208, 47.793471021412444 ], [ -4.265610151611401, 47.790287862023732 ], [ -4.279051104218511, 47.792452134697399 ], [ -4.272432496868177, 47.797302153585413 ], [ -4.272278076470837, 47.800872935636633 ], [ -4.287089139549286, 47.792574706323585 ], [ -4.300648939268485, 47.80065866546385 ], [ -4.325929956814878, 47.7977838840552 ], [ -4.371396118795431, 47.798079389061563 ], [ -4.373345552793499, 47.811624108550639 ], [ -4.380334176209362, 47.816326598288576 ], [ -4.37996272283938, 47.819830325363327 ], [ -4.366861962230365, 47.826197774844864 ], [ -4.353864867205138, 47.827332277423203 ], [ -4.349788222614277, 47.830652896502492 ], [ -4.347687602153891, 47.849007783972532 ], [ -4.352675048611324, 47.862985088145244 ], [ -4.362642755003914, 47.888996347927375 ], [ -4.373868641783441, 47.905337369540504 ], [ -4.39900449157992, 47.937440882704749 ], [ -4.409436986300512, 47.945079565418872 ], [ -4.410950378059668, 47.948391681401979 ], [ -4.420796362731261, 47.960550071480284 ], [ -4.462473251180346, 47.985800205085226 ], [ -4.472492790364826, 47.985523807108912 ], [ -4.495013644369232, 47.999626091145295 ], [ -4.53651661897931, 48.011268340423207 ], [ -4.531141818971365, 48.028943299120819 ], [ -4.531329387202693, 48.03526829876251 ], [ -4.490844832630219, 48.03776850524568 ], [ -4.490963679742308, 48.03927052896222 ], [ -4.522834468718414, 48.040161199273392 ], [ -4.527534993274098, 48.038811223202728 ], [ -4.533128263559139, 48.03625574585454 ], [ -4.54102382608585, 48.036987233785545 ], [ -4.534972594668966, 48.035106775869622 ], [ -4.53714912277086, 48.016172713443673 ], [ -4.542398607796668, 48.011134446596046 ], [ -4.549337644208849, 48.012080289664013 ], [ -4.566121946640395, 48.00039446465977 ], [ -4.589377173389566, 48.006992640756337 ], [ -4.597875325808867, 48.015401991045685 ], [ -4.602944159631043, 48.015136988713508 ], [ -4.622126424882015, 48.018177763554007 ], [ -4.632961724176005, 48.029371453964764 ], [ -4.652471515179572, 48.021970909407479 ], [ -4.664836106413251, 48.025910548961612 ], [ -4.696375327217988, 48.027010760821938 ], [ -4.72679713364081, 48.034921645624074 ], [ -4.740245991422419, 48.040581933383542 ], [ -4.708981475431563, 48.043833212266328 ], [ -4.706123395523608, 48.046516350764762 ], [ -4.713882144632549, 48.058638307977787 ], [ -4.713390317014493, 48.065144564426291 ], [ -4.672076078445609, 48.060337611059005 ], [ -4.666096802082982, 48.071170812793532 ], [ -4.632954088496092, 48.068103750172462 ], [ -4.628992338430066, 48.071769689254275 ], [ -4.621507575482783, 48.068422266413961 ], [ -4.583145919589742, 48.079864312115873 ], [ -4.568407170891666, 48.0817911469424 ], [ -4.548642078684354, 48.078108876719099 ], [ -4.534789338351005, 48.088318299151901 ], [ -4.504282551302306, 48.089447900640756 ], [ -4.488947680581687, 48.087298666240144 ], [ -4.464444963397459, 48.098719296014345 ], [ -4.457334977586709, 48.096531271422378 ], [ -4.431624475502979, 48.098304436427178 ], [ -4.414642903035042, 48.106218948044059 ], [ -4.393732279177417, 48.104915094036301 ], [ -4.378763202440493, 48.107970544896737 ], [ -4.363783166257101, 48.110283561810391 ], [ -4.341335075790713, 48.099188506272334 ], [ -4.329683297734984, 48.079906683333185 ], [ -4.334171370725972, 48.097737906207044 ], [ -4.326788117405795, 48.098198306227872 ], [ -4.308772314551247, 48.089984520160939 ], [ -4.296937639503673, 48.092192923865134 ], [ -4.297865060202997, 48.095289269558464 ], [ -4.285759004108092, 48.104625417526989 ], [ -4.28429376204816, 48.107888247994069 ], [ -4.284130358497983, 48.124580364319087 ], [ -4.269592113771321, 48.133377848903187 ], [ -4.272004808961409, 48.146756518335458 ], [ -4.272881744341765, 48.152621280247139 ], [ -4.275192929904748, 48.155568841213857 ], [ -4.294314379210987, 48.158578194341949 ], [ -4.296321035892652, 48.165068694585742 ], [ -4.291844371505772, 48.174201963892521 ], [ -4.296165088359332, 48.183738915225611 ], [ -4.304245344508456, 48.195328953253053 ], [ -4.313020717024434, 48.19788383601221 ], [ -4.31636253971289, 48.203839385176749 ], [ -4.321141217698293, 48.203985231073318 ], [ -4.325063441891812, 48.202250260650715 ], [ -4.332229931733935, 48.20624141897818 ], [ -4.367453053687317, 48.205697272788818 ], [ -4.376517504061726, 48.216932548117235 ], [ -4.400506474734968, 48.220389704542448 ], [ -4.404468584127102, 48.22259884648917 ], [ -4.423337606838507, 48.22798194021177 ], [ -4.433753123400228, 48.227506007270854 ], [ -4.440917187791085, 48.232539732944559 ], [ -4.461026065257627, 48.236781503602955 ], [ -4.492285910009002, 48.234554125709117 ], [ -4.49689750135156, 48.232832756776347 ], [ -4.501255677952464, 48.226680400035484 ], [ -4.497054796357808, 48.220268324957715 ], [ -4.510950476161741, 48.209883559248119 ], [ -4.522666663423338, 48.190244497065414 ], [ -4.537740214227809, 48.180431007538623 ], [ -4.541544399792998, 48.170189976952948 ], [ -4.551446529169849, 48.168189946921508 ], [ -4.560033974128388, 48.176235245465804 ], [ -4.552404492588832, 48.181181350547469 ], [ -4.551175058290984, 48.198995341196763 ], [ -4.562938766431118, 48.230329703565538 ], [ -4.57279562071765, 48.233014063309952 ], [ -4.544273122300039, 48.240547230615313 ], [ -4.543950267786928, 48.249895972095906 ], [ -4.556919964195992, 48.2586825564008 ], [ -4.580977296662351, 48.252229690392966 ], [ -4.597366699694996, 48.253904291198197 ], [ -4.612205161389611, 48.261498312546863 ], [ -4.625057897148681, 48.255280141942443 ], [ -4.616815674753826, 48.275284080486117 ], [ -4.631091521585997, 48.280526106746912 ], [ -4.611953183952417, 48.280976498225314 ], [ -4.600809403189857, 48.287543608525056 ], [ -4.594550032121641, 48.275445686077965 ], [ -4.576418616090032, 48.277886388507518 ], [ -4.566635603319853, 48.286025823866893 ], [ -4.567602999049322, 48.291612987873137 ], [ -4.578669345034391, 48.322032352646339 ], [ -4.555965234712024, 48.33679241727652 ], [ -4.533377725713538, 48.341399027060056 ], [ -4.542391780600507, 48.326579314209006 ], [ -4.548711248961233, 48.309354926394683 ], [ -4.556765903124762, 48.304880463417 ], [ -4.553070144214367, 48.294632342285702 ], [ -4.5366019589313, 48.284550076947291 ], [ -4.525332863186607, 48.291912785673084 ], [ -4.509392797459077, 48.311438585158371 ], [ -4.497429932820457, 48.310780188056839 ], [ -4.516994521056353, 48.294975212610922 ], [ -4.502598838965283, 48.280861061127702 ], [ -4.47258495751298, 48.286806300289875 ], [ -4.459929132464191, 48.292858129370778 ], [ -4.423409292398176, 48.291366083698243 ], [ -4.410335121921575, 48.276635022939679 ], [ -4.384499394687237, 48.275155776163459 ], [ -4.367192362591865, 48.277720007857006 ], [ -4.352546859020281, 48.286251713153575 ], [ -4.338007895641394, 48.285593708446903 ], [ -4.306380100949639, 48.297767275875323 ], [ -4.262176071943269, 48.29352948788685 ], [ -4.267204571409185, 48.283578934742756 ], [ -4.274812762876508, 48.288956150193364 ], [ -4.285839942315191, 48.288122090663641 ], [ -4.285521040389328, 48.277226482474141 ], [ -4.288901400803468, 48.273394219700627 ], [ -4.28137953743495, 48.274789574961659 ], [ -4.256629963210643, 48.263664835688964 ], [ -4.269479015877048, 48.258915803211714 ], [ -4.253653844674356, 48.259257896609427 ], [ -4.244141494299287, 48.252090083020143 ], [ -4.24338116024281, 48.248829837432361 ], [ -4.230046119007698, 48.251220548999356 ], [ -4.218948331987683, 48.258387886408187 ], [ -4.213353265072072, 48.243541964360027 ], [ -4.20653307577198, 48.239080101868737 ], [ -4.210311569520046, 48.247206635683959 ], [ -4.156427115348948, 48.244481562805014 ], [ -4.138090164780328, 48.236739441248169 ], [ -4.111466076052652, 48.244672519451569 ], [ -4.118092229251373, 48.221975752546811 ], [ -4.117527009274606, 48.218296824036592 ], [ -4.112004616065482, 48.238153507199286 ], [ -4.108926987902087, 48.240498291104679 ], [ -4.10827642797333, 48.247394471505395 ], [ -4.095538586739098, 48.25654530818818 ], [ -4.135868631082701, 48.241300761546526 ], [ -4.152748334597422, 48.247071919886558 ], [ -4.15063334109249, 48.249621529635355 ], [ -4.155402227441298, 48.247389685887939 ], [ -4.206786490513633, 48.250900773052976 ], [ -4.217728689326435, 48.261624857055203 ], [ -4.239084608070392, 48.253195865847132 ], [ -4.249779141359364, 48.265504884944058 ], [ -4.271337360705306, 48.274604829196015 ], [ -4.280733019924969, 48.278624483127658 ], [ -4.278446627863832, 48.280979367709669 ], [ -4.263756478022621, 48.27920115323068 ], [ -4.230245545000769, 48.292327993156128 ], [ -4.225654435246692, 48.28818198273639 ], [ -4.201651810181131, 48.29470896088479 ], [ -4.195914809450632, 48.291670843725981 ], [ -4.180796253050425, 48.296458666506425 ], [ -4.193142877978422, 48.29753187567772 ], [ -4.233905281468273, 48.298256658595406 ], [ -4.239080655483142, 48.307317847394316 ], [ -4.221152618031859, 48.313945375284476 ], [ -4.245343889307082, 48.310701143986108 ], [ -4.247590306338076, 48.299495064566216 ], [ -4.259579042456879, 48.309031451280383 ], [ -4.271550800416812, 48.308140958032119 ], [ -4.28303306637843, 48.314074179591785 ], [ -4.24434675934171, 48.327531601196462 ], [ -4.255241077949866, 48.327341670815969 ], [ -4.272601290310062, 48.320129526788079 ], [ -4.28283507768981, 48.319290779469334 ], [ -4.2930187390767, 48.310774093960489 ], [ -4.309423952458348, 48.316237995546345 ], [ -4.337040589743451, 48.313575807874251 ], [ -4.320892114870005, 48.327075229552335 ], [ -4.302935960150325, 48.329298576825465 ], [ -4.31847465860891, 48.333550116634989 ], [ -4.277837480269668, 48.34461808041825 ], [ -4.292809521447031, 48.348582849804338 ], [ -4.270182127249928, 48.353148934796316 ], [ -4.260318805093353, 48.35896876422126 ], [ -4.2686517573319, 48.357661366184857 ], [ -4.29298487259049, 48.353550451311932 ], [ -4.302182183795419, 48.355638811492476 ], [ -4.306669178808067, 48.349307504686841 ], [ -4.298401444259146, 48.344442483562432 ], [ -4.331796853935458, 48.340639328761938 ], [ -4.318480767152844, 48.362175009442495 ], [ -4.323759088099272, 48.358025838918671 ], [ -4.347974524055639, 48.342633758945361 ], [ -4.354801181225779, 48.343952886957943 ], [ -4.341769590893641, 48.357576724092716 ], [ -4.367535159704288, 48.345056801234591 ], [ -4.366883162471072, 48.335293116234453 ], [ -4.374112714046136, 48.325977077879934 ], [ -4.417237417238634, 48.323908109270668 ], [ -4.402039000609674, 48.338941237036295 ], [ -4.389835656969495, 48.341603295181123 ], [ -4.402195217637582, 48.341778065881918 ], [ -4.446577472396319, 48.325070395076203 ], [ -4.454660513322827, 48.326928062115492 ], [ -4.434543371355669, 48.36162452395682 ], [ -4.417357342329067, 48.369934114895941 ], [ -4.404822161022934, 48.381536936548677 ], [ -4.367928621798731, 48.395173747591294 ], [ -4.361659189599332, 48.401256857872156 ], [ -4.356210278580446, 48.402653131156924 ], [ -4.348400415331838, 48.402117754460889 ], [ -4.318633121425028, 48.414688762873453 ], [ -4.313883998012474, 48.415669215125995 ], [ -4.270245458477461, 48.443141554420251 ], [ -4.274148638386957, 48.443868498712938 ], [ -4.278670937190272, 48.439669371455025 ], [ -4.281779557230968, 48.436731611459621 ], [ -4.292005708930803, 48.434990532732513 ], [ -4.313878877615353, 48.42059378776689 ], [ -4.328489526553916, 48.418008892273924 ], [ -4.347639362623135, 48.408598373894172 ], [ -4.367159663915523, 48.406986391674337 ], [ -4.371099495088616, 48.400840389818008 ], [ -4.376029000210222, 48.400189528647161 ], [ -4.379932808940419, 48.397750260923999 ], [ -4.388965908111411, 48.397818613067194 ], [ -4.405960056993327, 48.390267054536828 ], [ -4.422818560267344, 48.397026354797049 ], [ -4.430716907571432, 48.397415715819925 ], [ -4.433898201318615, 48.396022937188455 ], [ -4.438162773466916, 48.383039888775798 ], [ -4.458520035109519, 48.385480279368863 ], [ -4.472159425562889, 48.381509909134472 ], [ -4.483521676602551, 48.38155919089882 ], [ -4.507317329826647, 48.374446670673791 ], [ -4.534968642081716, 48.358524074776902 ], [ -4.55447160588912, 48.361264255053392 ], [ -4.555647320932975, 48.357844975768742 ], [ -4.573303887505403, 48.350134116879097 ], [ -4.606283556868227, 48.339102282905458 ], [ -4.6217804836661, 48.338265579281881 ], [ -4.626717085478451, 48.337531033900525 ], [ -4.637940097649069, 48.344217687656602 ], [ -4.652384737923124, 48.346102778103834 ], [ -4.67890812550745, 48.355454477632975 ], [ -4.698435253996001, 48.351082501436977 ], [ -4.699714275297532, 48.337620068458477 ], [ -4.712447894449925, 48.331265381327739 ], [ -4.738620579747333, 48.331676924318373 ], [ -4.764508948257314, 48.328231948430016 ], [ -4.773021833047273, 48.331794157622952 ], [ -4.771505117521565, 48.335194045082268 ], [ -4.776549876494125, 48.335838153422259 ], [ -4.769868926063069, 48.347587969866154 ], [ -4.782103890401252, 48.358019929538784 ], [ -4.771216758315365, 48.361449045385768 ], [ -4.755352330734755, 48.35939094699701 ], [ -4.750659711353575, 48.360132996522339 ], [ -4.754433264367576, 48.361982701299929 ], [ -4.746314560324288, 48.366809583191845 ], [ -4.755548163466696, 48.363835084370606 ], [ -4.787898113815352, 48.361046457060013 ], [ -4.786653947146846, 48.367927086612021 ], [ -4.77492374616681, 48.364034786294233 ], [ -4.761828375449505, 48.371070824917339 ], [ -4.760627058420047, 48.378354881970488 ], [ -4.773657930099959, 48.38762358617381 ], [ -4.775942166204417, 48.40686497810033 ], [ -4.785315457373508, 48.407260584916948 ], [ -4.793472339816367, 48.415727526516612 ], [ -4.784660675362912, 48.435392178719177 ], [ -4.77597818864731, 48.44389144087922 ], [ -4.780469495573323, 48.44531371577429 ], [ -4.779512610132681, 48.448567910629592 ], [ -4.765066891880283, 48.465698317183545 ], [ -4.760910387060662, 48.468375429890067 ], [ -4.75697774240984, 48.467521373252616 ], [ -4.759486916661449, 48.459781555639474 ], [ -4.751267780969394, 48.469170030944575 ], [ -4.718162527129849, 48.474388680029058 ], [ -4.724699747115445, 48.476863812973939 ], [ -4.729722138037428, 48.474692048420408 ], [ -4.757601981700776, 48.470174327886312 ], [ -4.772607080880594, 48.478211679975814 ], [ -4.766668588031866, 48.480156239870688 ], [ -4.772723053383776, 48.48549022174376 ], [ -4.77804637992594, 48.503644955793135 ], [ -4.767465932678054, 48.510992451356003 ], [ -4.775876319694093, 48.517871248306527 ], [ -4.76643924813983, 48.516537645407119 ], [ -4.763540923707148, 48.519285797735733 ], [ -4.760315612511047, 48.529458465341868 ], [ -4.751466488310238, 48.533201410877872 ], [ -4.748695904310962, 48.543434087174063 ], [ -4.729872246521406, 48.555600058414299 ], [ -4.720355314738386, 48.558091085276288 ], [ -4.706254819049677, 48.552961621843885 ], [ -4.70410955231967, 48.550045999223848 ], [ -4.702027706648722, 48.57111429963264 ], [ -4.686653130392545, 48.571958052187505 ], [ -4.681918110529953, 48.567357037366556 ], [ -4.668866308103923, 48.574275252974147 ], [ -4.663167126446882, 48.568940628337309 ], [ -4.6602846123632, 48.571386358616472 ], [ -4.646419205784341, 48.572118360609231 ], [ -4.629130229826178, 48.578039489690383 ], [ -4.599928784716833, 48.572322594109977 ], [ -4.592650364790313, 48.56019090613735 ], [ -4.59555803170195, 48.553407465624403 ], [ -4.585962587163102, 48.556606389527175 ], [ -4.579698634686935, 48.555280882273614 ], [ -4.585298013515907, 48.560281810395097 ], [ -4.556814861307745, 48.558855920544204 ], [ -4.541830243716404, 48.555960199417441 ], [ -4.530709819151232, 48.548786982488735 ], [ -4.529586206393859, 48.554027228332913 ], [ -4.506769806660976, 48.546139270138447 ], [ -4.507057447214948, 48.552880218360862 ], [ -4.511972130134367, 48.551846162718881 ], [ -4.554336229775804, 48.562050278905325 ], [ -4.584995640591275, 48.562795376233886 ], [ -4.594371087717045, 48.574748071331676 ], [ -4.61130082739309, 48.57681706769776 ], [ -4.60428229007826, 48.587542443935163 ], [ -4.605849041765295, 48.604847539538198 ], [ -4.596672212148845, 48.607332933113689 ], [ -4.58552591610349, 48.601240941226145 ], [ -4.595115252098411, 48.593352978701255 ], [ -4.562278953854933, 48.598775506013347 ], [ -4.55682815637395, 48.594062144868701 ], [ -4.545766481628358, 48.598398619648343 ], [ -4.528700287860656, 48.592379938514682 ], [ -4.522979187310687, 48.592571018776958 ], [ -4.520163597715668, 48.586261482626128 ], [ -4.504668467548363, 48.586293630356806 ], [ -4.488334221074161, 48.574295818138644 ], [ -4.478404693081148, 48.572084896193878 ], [ -4.501227560684072, 48.588887724376576 ], [ -4.519534687185258, 48.588515161338265 ], [ -4.52063521323983, 48.594454511014511 ], [ -4.539432280896977, 48.599912623574205 ], [ -4.561321349762062, 48.603734293983059 ], [ -4.552282411541721, 48.610481583977197 ], [ -4.56859366114465, 48.609442766502099 ], [ -4.564607746397484, 48.624724532045519 ], [ -4.541311107313715, 48.623676210117289 ], [ -4.542695680661126, 48.636555135842492 ], [ -4.529549195804149, 48.628217771862033 ], [ -4.512621252758672, 48.633247522167572 ], [ -4.509357493668409, 48.622222417878504 ], [ -4.462769874887162, 48.627056710447121 ], [ -4.440803371244586, 48.641716363275251 ], [ -4.434528998311127, 48.634519871334362 ], [ -4.43164935883635, 48.640238456629959 ], [ -4.397362910229718, 48.636388501795359 ], [ -4.429006155944359, 48.647622571379458 ], [ -4.433326243977216, 48.6534419207334 ], [ -4.397146236583188, 48.656205544097915 ], [ -4.349139459316084, 48.676474565094594 ], [ -4.32822416421899, 48.675281336958918 ], [ -4.329059058444048, 48.668508893833014 ], [ -4.322048785629837, 48.666176792478588 ], [ -4.315951470638876, 48.672875575932814 ], [ -4.31022668699624, 48.667843785184822 ], [ -4.29455701416923, 48.663359367583972 ], [ -4.303135116648813, 48.651287932936924 ], [ -4.318275951268064, 48.646092607687308 ], [ -4.308980364371052, 48.643575349023116 ], [ -4.317287355297892, 48.640697183352685 ], [ -4.316151974610289, 48.637749874560654 ], [ -4.31159329403797, 48.635175921256298 ], [ -4.301942064119971, 48.633023290454339 ], [ -4.294015958873601, 48.636283605766252 ], [ -4.301171668932311, 48.639791538345698 ], [ -4.277108856742717, 48.644348269001561 ], [ -4.27530998038627, 48.649435700463002 ], [ -4.245141948031211, 48.649833452500111 ], [ -4.22445707080449, 48.656096891478441 ], [ -4.232037953487175, 48.649710364544553 ], [ -4.219577242518094, 48.648914439947212 ], [ -4.20011281643638, 48.652678635275997 ], [ -4.194484601686782, 48.651998778073157 ], [ -4.20252766758315, 48.656343985354077 ], [ -4.22207563698629, 48.657903603980166 ], [ -4.212448212423321, 48.667258581982992 ], [ -4.187235915996166, 48.68478117889434 ], [ -4.162426963131583, 48.689764193144264 ], [ -4.133030403942527, 48.69525155066507 ], [ -4.112558607101199, 48.694788576678505 ], [ -4.096961607980673, 48.694257111921232 ], [ -4.094512171695465, 48.687584893017956 ], [ -4.092402568082239, 48.690826381705975 ], [ -4.081961539366447, 48.691583989780852 ], [ -4.060583611898025, 48.676048788284113 ], [ -4.057122223445256, 48.669616676841947 ], [ -4.055610987642783, 48.672252939907736 ], [ -4.058251585420453, 48.676349762679827 ], [ -4.06574569084669, 48.684962539014009 ], [ -4.060849333559069, 48.687176823426306 ], [ -4.038434660421246, 48.686527676988668 ], [ -4.03577636583248, 48.687651194377445 ], [ -4.056083681145286, 48.688344684761006 ], [ -4.054671709181706, 48.70180252009019 ], [ -4.040794444841101, 48.704105583092662 ], [ -4.034803310716723, 48.713291412295263 ], [ -4.025179479414893, 48.710834829621682 ], [ -4.011902649010191, 48.715293091136125 ], [ -4.007036924273759, 48.725891693619822 ], [ -4.002702463196353, 48.726544065723708 ], [ -3.999673433889831, 48.712021762159829 ], [ -3.986997127252562, 48.728812339553919 ], [ -3.964642910733362, 48.721580456208365 ], [ -3.973642951901899, 48.703888306314425 ], [ -3.973254161046931, 48.69700355558512 ], [ -3.959815364396503, 48.687171604668627 ], [ -3.968358881737652, 48.690382698922974 ], [ -3.969592178791217, 48.675528692697462 ], [ -3.952639082917786, 48.672728637846539 ], [ -3.95237012732172, 48.658025959873996 ], [ -3.9576286853319, 48.648092448110745 ], [ -3.950667370700672, 48.638901132829893 ], [ -3.956020880636385, 48.61578711929134 ], [ -3.950053551867035, 48.618429998131873 ], [ -3.93501027428764, 48.598684908586172 ], [ -3.941829744935504, 48.611686918074902 ], [ -3.938912286387271, 48.614530214179112 ], [ -3.943739922555656, 48.615810280639835 ], [ -3.9506291923011, 48.62500627784015 ], [ -3.946549673101326, 48.641950112878447 ], [ -3.95070878303527, 48.651386863145028 ], [ -3.942216739159902, 48.655368598377443 ], [ -3.928781895096725, 48.658473013267688 ], [ -3.921896847433119, 48.673971280382418 ], [ -3.891049239565624, 48.671735652602322 ], [ -3.88982196122446, 48.666985259383992 ], [ -3.905483010224745, 48.662754117151771 ], [ -3.903882122556916, 48.656318884374429 ], [ -3.897757049623677, 48.646688087086247 ], [ -3.885598801410759, 48.64035937141557 ], [ -3.880687711752478, 48.639171995851179 ], [ -3.859840419122387, 48.632205907850427 ], [ -3.858216444751757, 48.628760383018097 ], [ -3.858126523391815, 48.61812024513813 ], [ -3.862509493494565, 48.612612251130443 ], [ -3.859482260818608, 48.609572723797157 ], [ -3.870649038452443, 48.603997207717939 ], [ -3.857177543125671, 48.607367205766018 ], [ -3.849571417783503, 48.603770113535376 ], [ -3.859856319302915, 48.614182962197063 ], [ -3.847335870367443, 48.625974889476218 ], [ -3.81128755599407, 48.628922648685254 ], [ -3.847376204723702, 48.62991825854791 ], [ -3.862880318043846, 48.671703321969417 ], [ -3.855036588309031, 48.673735780976273 ], [ -3.853308229702384, 48.662450213546819 ], [ -3.846264449728074, 48.660183575973122 ], [ -3.852739775790593, 48.687799156398931 ], [ -3.832960669864849, 48.712933933744615 ], [ -3.818079358531183, 48.700434813501737 ], [ -3.824064024785515, 48.719691691875369 ], [ -3.808543651958725, 48.711489412390286 ], [ -3.799428446770766, 48.713039618680888 ], [ -3.7920869651113, 48.702553204402101 ], [ -3.779723541687491, 48.701768667295781 ], [ -3.763109559833813, 48.709006185039762 ], [ -3.747876468234884, 48.707767430118686 ], [ -3.721871857727135, 48.705591991947422 ], [ -3.701328465157663, 48.689861031607201 ], [ -3.688762651300342, 48.691813890978651 ], [ -3.679158942260877, 48.686666450089447 ], [ -3.655621464849433, 48.69580251262235 ], [ -3.641549715249817, 48.69398002224662 ], [ -3.654849632357319, 48.681312792991164 ], [ -3.638729903572966, 48.67375565313494 ], [ -3.653734643426669, 48.666264599007953 ], [ -3.659157323639258, 48.659208975330174 ], [ -3.663535712334056, 48.653800296538421 ], [ -3.654181106122876, 48.617295613543213 ], [ -3.648980489448526, 48.611629009954662 ], [ -3.639880106462751, 48.609113892273605 ], [ -3.640602621445768, 48.596056443114399 ], [ -3.636745165784231, 48.593329272321157 ], [ -3.629297503258182, 48.588365184628458 ], [ -3.613731136688846, 48.589224098310481 ], [ -3.599568028424829, 48.584604985190694 ], [ -3.594583097250196, 48.585748542315805 ], [ -3.58571807286886, 48.573269095057988 ], [ -3.599429418376494, 48.558615186561191 ], [ -3.581723534294968, 48.553965745928146 ], [ -3.572693669058999, 48.556768054679935 ], [ -3.55382383786384, 48.541283849167066 ], [ -3.539280203245473, 48.538250082324829 ], [ -3.559271401409799, 48.526946098902265 ], [ -3.584798287849452, 48.504624703256901 ], [ -3.597676895088701, 48.498591524628601 ], [ -3.604167402679522, 48.494050274581483 ], [ -3.601798185949185, 48.484414538873693 ], [ -3.604903931380973, 48.47824711206615 ], [ -3.59806963853092, 48.473897414725329 ], [ -3.599593181252786, 48.4707973727119 ], [ -3.594945208141222, 48.470433290568657 ], [ -3.592162407054077, 48.464503559584848 ], [ -3.578691989705646, 48.462733767994415 ], [ -3.57888530715479, 48.459518249440542 ], [ -3.568939519655134, 48.452938546617972 ], [ -3.554511857539947, 48.453683700877647 ], [ -3.550496028893818, 48.447830606153715 ], [ -3.585039844829351, 48.432995963819884 ], [ -3.598767000685981, 48.422634925875279 ], [ -3.600111599003251, 48.402283013926436 ], [ -3.602911647743851, 48.400294020069801 ], [ -3.602226233182068, 48.393768798876046 ], [ -3.607695356294846, 48.388326329186079 ], [ -3.555155141114904, 48.376913608087996 ], [ -3.553938732388679, 48.370101746607006 ], [ -3.562814177227307, 48.347021326193932 ], [ -3.556244528059957, 48.342131606010661 ], [ -3.548160319323582, 48.314872508126612 ], [ -3.538573947769098, 48.314627209975043 ], [ -3.527234963095299, 48.321953146807786 ], [ -3.518342629929328, 48.318580273658299 ], [ -3.527687175009325, 48.316222403495679 ], [ -3.54250587376769, 48.298917069822444 ], [ -3.552316554648615, 48.2996821106779 ], [ -3.553027930522109, 48.293015854291539 ], [ -3.530104900765005, 48.286557878514706 ], [ -3.522957095880794, 48.281716640502154 ], [ -3.517897694369103, 48.282257946071439 ], [ -3.525850120253299, 48.270804119782433 ], [ -3.526512088786168, 48.261098224115131 ], [ -3.522176998888064, 48.255252808312122 ], [ -3.54071481275421, 48.253206273382808 ], [ -3.544493755659916, 48.243588866920142 ], [ -3.553804793579816, 48.240859772302649 ], [ -3.556043305436314, 48.227255382185405 ], [ -3.541258473164162, 48.209188412859227 ], [ -3.522576569526442, 48.20394876963811 ], [ -3.521292158333207, 48.19717607193575 ], [ -3.519676089137076, 48.190665561056804 ], [ -3.524332326749254, 48.189559025513972 ], [ -3.543100558485776, 48.193574467163174 ], [ -3.566669387100635, 48.190033155294088 ], [ -3.564838800214657, 48.185746963287265 ], [ -3.620747518046988, 48.170978692150904 ], [ -3.653414304196349, 48.156206346462405 ], [ -3.671864622153826, 48.151631390599285 ], [ -3.696016637051136, 48.152020948046072 ], [ -3.699240510942783, 48.145850250259954 ], [ -3.713289084008073, 48.142042490785975 ], [ -3.711009608974619, 48.135372221903026 ], [ -3.723410132819661, 48.124910883330095 ], [ -3.720517557604795, 48.119043434923022 ], [ -3.732506653049712, 48.112902959846835 ], [ -3.729682439627968, 48.102922537747681 ], [ -3.733190989633155, 48.096499053309529 ], [ -3.708164913964399, 48.098164169333693 ], [ -3.695003606905233, 48.093360180367434 ], [ -3.703809971298516, 48.08468522454195 ], [ -3.700379484891518, 48.070828363013305 ], [ -3.70370953964975, 48.068082619737659 ], [ -3.701509206192828, 48.064866550466057 ], [ -3.674598824384101, 48.054919614733421 ], [ -3.660916674123206, 48.017567087195687 ], [ -3.649005372781895, 48.006023204496564 ], [ -3.641040370483719, 47.98579299001657 ], [ -3.621982342236539, 47.982815184949388 ], [ -3.613013652271416, 47.985099977970187 ], [ -3.605290206953145, 47.989607876977828 ], [ -3.5900488508536, 47.989290797151426 ], [ -3.582006862935579, 47.985958274961583 ], [ -3.574375225439341, 47.990576299092325 ], [ -3.554157202665777, 47.991887680082357 ], [ -3.545800894229841, 47.987848041306933 ], [ -3.530819510573521, 47.986244531120505 ], [ -3.517473240397357, 47.976177654129529 ], [ -3.497449343556692, 47.976728383790132 ], [ -3.485293161468929, 47.966863251158756 ], [ -3.479924200510333, 47.950798089803811 ], [ -3.468018917881423, 47.945549755005963 ], [ -3.463967156623931, 47.94758823674001 ], [ -3.461306795910012, 47.957613161935967 ], [ -3.441627402980808, 47.960158340793498 ], [ -3.417730240129602, 47.972167698454399 ], [ -3.412978242108138, 47.973339481105391 ], [ -3.408436090537044, 47.967258299243092 ], [ -3.403390343417674, 47.967001109329246 ], [ -3.401313079154674, 47.960721933959874 ], [ -3.393208478661347, 47.957281507637688 ], [ -3.393172456218456, 47.95086391172714 ], [ -3.400983756771515, 47.941995607805616 ], [ -3.388025558798094, 47.927036976972694 ] ] ], [ [ [ -5.035398796792468, 48.461366010575063 ], [ -5.03880619649666, 48.458765257660041 ], [ -5.049189733034273, 48.458032092668546 ], [ -5.059784194000589, 48.450193768001597 ], [ -5.080455327003464, 48.449452554620258 ], [ -5.089432281469198, 48.440862448987779 ], [ -5.099586118788659, 48.439018828463858 ], [ -5.10260293100732, 48.436117088345938 ], [ -5.115103886501127, 48.437674628642867 ], [ -5.108276870004874, 48.442827747725843 ], [ -5.094950362764957, 48.448506657683403 ], [ -5.093860706325322, 48.451746586876276 ], [ -5.097533378532917, 48.454307841819841 ], [ -5.102486599178025, 48.455388571736265 ], [ -5.105106356041102, 48.45501014015133 ], [ -5.130485289953461, 48.449198489923262 ], [ -5.135844279612401, 48.449038030490428 ], [ -5.138352016559549, 48.449516666430178 ], [ -5.139017308858973, 48.450908992907856 ], [ -5.13183671546689, 48.458421105719864 ], [ -5.110304008275018, 48.465651142125189 ], [ -5.104911241961388, 48.471573592122489 ], [ -5.092296469921084, 48.474516959699741 ], [ -5.081802081277417, 48.473407276217387 ], [ -5.076843830066716, 48.47476768179655 ], [ -5.073013773021347, 48.477271797526839 ], [ -5.072173578736109, 48.478965931532791 ], [ -5.074815613818235, 48.48180615432922 ], [ -5.072523472539271, 48.482731185747802 ], [ -5.065052723310423, 48.481124412941746 ], [ -5.060442928598435, 48.476808311099724 ], [ -5.05269289314775, 48.47664865354573 ], [ -5.055542978049675, 48.466715191114744 ], [ -5.048430476956132, 48.464323491724684 ], [ -5.037898359070529, 48.464008624589461 ], [ -5.035701618874745, 48.463072589187625 ], [ -5.035398796792468, 48.461366010575063 ] ] ], [ [ [ -3.988799237544036, 48.739298139130554 ], [ -3.991810300544875, 48.736403518841463 ], [ -3.995883351874601, 48.740507563410787 ], [ -4.00655264250409, 48.740864372078477 ], [ -4.010590479874678, 48.74317311115761 ], [ -4.015571368630535, 48.742545657399333 ], [ -4.019194453834445, 48.739948323079382 ], [ -4.024355364973239, 48.73985158097976 ], [ -4.0342676453128, 48.742282399354565 ], [ -4.036561942548443, 48.743194377627162 ], [ -4.037810421130311, 48.744754980198884 ], [ -4.037064100792267, 48.746406459010231 ], [ -4.021052080010477, 48.752615841665907 ], [ -4.007809116091988, 48.752131658944975 ], [ -4.000447063012514, 48.747038484784035 ], [ -3.990899498678307, 48.744366862955474 ], [ -3.988799237544036, 48.739298139130554 ] ] ], [ [ [ -4.953596051063861, 48.394916786956827 ], [ -4.95919623837659, 48.389412519327806 ], [ -4.963490634592321, 48.391139590271209 ], [ -4.966284934115106, 48.397642841707132 ], [ -4.961496644156163, 48.401428799796179 ], [ -4.953596051063861, 48.394916786956827 ] ] ], [ [ [ -4.841390902522571, 48.03176928363095 ], [ -4.84599674464731, 48.031551882604226 ], [ -4.850236433462239, 48.031774690110694 ], [ -4.856564166323577, 48.038595233358905 ], [ -4.863788597501521, 48.040290813374057 ], [ -4.866529716759484, 48.037692402826536 ], [ -4.870339202384853, 48.040719894983873 ], [ -4.867402699552595, 48.044000713576033 ], [ -4.862475709713783, 48.041798529343723 ], [ -4.858097410850513, 48.041739129665075 ], [ -4.853944050134387, 48.039566339644509 ], [ -4.85072745259654, 48.040604576649336 ], [ -4.84906538965786, 48.032965363342782 ], [ -4.841390902522571, 48.03176928363095 ] ] ] ] } }
]
}
