{"type":"FeatureCollection","name":"refuges","crs":{"type":"name","properties":{"name":"urn:ogc:def:crs:OGC:1.3:CRS84"}},"features":[{"type":"Feature","properties":{"fid":2,"nom":"L'Arche de No\u00e9","info":"Situ\u00e9e \u00e0 Brest, L'Arche de No\u00e9 a pour principe de recueillir en priorit\u00e9 les chats bless\u00e9s, les chats risquant d'\u00eatre euthanasi\u00e9s par leurs propri\u00e9taires sans raison valable, ceux qui sont abandonn\u00e9s ou capt\u00e9s par la fourri\u00e8re, sans a-priori sur leur apparence, leur sociabilit\u00e9 ou leur \"adoptabilit\u00e9\".\n\nEn moyenne nous accueillons entre 500 et 600 chats dans l'ann\u00e9e et une cinquantaine de chiens.","type":"Association","type_structure":"Refuge","domaine":"Public","taille_personnel":null,"accueil_type":"Global","capacit\u00e9":null,"adresse":"20 Rue Amiral Romain Desfosses, 29200 Brest","mail":"contact@arche-noe.bzh","tel":"+33616643980","url":"http://www.arche-de-noe-brest.fr/","prox_epa_nom":null,"prox_epa_distance":null,"prox_ville_nom":null,"prox_ville_distance":null,"access_voie":null,"date_creation":null,"date_modif":null,"last_modif_user_name":null,"lien_ext":null,"priorite":null,"creation_user_name":null,"Statut":null,"Frequence":null},"geometry":{"type":"Point","coordinates":[-4.480926885828716,48.425641155747535]}},{"type":"Feature","properties":{"fid":4,"nom":"La Soci\u00e9t\u00e9 Protectrice des Animaux (SPA) - Refuge de Crozon","info":null,"type":"Soci\u00e9t\u00e9","type_structure":"Refuge","domaine":"Priv\u00e9","taille_personnel":null,"accueil_type":"Global","capacit\u00e9":null,"adresse":"ZA de Kerdanvez, 29160 Crozon","mail":null,"tel":"+33230140542","url":"https://www.la-spa.fr/crozon","prox_epa_nom":null,"prox_epa_distance":null,"prox_ville_nom":null,"prox_ville_distance":null,"access_voie":null,"date_creation":null,"date_modif":null,"last_modif_user_name":null,"lien_ext":null,"priorite":null,"creation_user_name":null,"Statut":null,"Frequence":null},"geometry":{"type":"Point","coordinates":[-4.446159594218124,48.252927203866975]}},{"type":"Feature","properties":{"fid":7,"nom":"La Soci\u00e9t\u00e9 Protectrice des Animaux (SPA) - Refuge de Plouhinec","info":null,"type":"Soci\u00e9t\u00e9","type_structure":"Refuge","domaine":"Priv\u00e9e","taille_personnel":null,"accueil_type":"Global","capacit\u00e9":null,"adresse":"La Soci\u00e9t\u00e9 Protectrice des Animaux (SPA) - Refuge de Plouhinec","mail":null,"tel":"+33298704493","url":"https://www.la-spa.fr/plouhinec","prox_epa_nom":null,"prox_epa_distance":null,"prox_ville_nom":null,"prox_ville_distance":null,"access_voie":null,"date_creation":null,"date_modif":null,"last_modif_user_name":null,"lien_ext":null,"priorite":null,"creation_user_name":null,"Statut":null,"Frequence":null},"geometry":{"type":"Point","coordinates":[-4.492749639616628,48.033725201223376]}},{"type":"Feature","properties":{"fid":9,"nom":"Refuge Animalier du Pays de Landerneau","info":null,"type":"Association","type_structure":"Refuge","domaine":null,"taille_personnel":null,"accueil_type":null,"capacit\u00e9":null,"adresse":"8 Rue Saint-Ernel, 29800 Landerneau","mail":"refugedelanderneau@yahoo.fr","tel":"+33298215727","url":"https://refugeanimalierdupaysdelanderneau.over-blog.com/","prox_epa_nom":null,"prox_epa_distance":null,"prox_ville_nom":null,"prox_ville_distance":null,"access_voie":null,"date_creation":null,"date_modif":null,"last_modif_user_name":null,"lien_ext":null,"priorite":null,"creation_user_name":null,"Statut":null,"Frequence":null},"geometry":{"type":"Point","coordinates":[-4.262883243465647,48.44585108307222]}},{"type":"Feature","properties":{"fid":11,"nom":"Les Coussinets - Refuge animalier","info":null,"type":null,"type_structure":"Refuge","domaine":null,"taille_personnel":null,"accueil_type":null,"capacit\u00e9":null,"adresse":"5 Rue Notre Dame, 29260 Lesneven","mail":"contact@lescoussinets.org","tel":"+33767484717","url":"https://lescoussinets.org/","prox_epa_nom":null,"prox_epa_distance":null,"prox_ville_nom":null,"prox_ville_distance":null,"access_voie":null,"date_creation":null,"date_modif":null,"last_modif_user_name":null,"lien_ext":null,"priorite":null,"creation_user_name":null,"Statut":null,"Frequence":null},"geometry":{"type":"Point","coordinates":[-4.324870858159991,48.57241972319892]}},{"type":"Feature","properties":{"fid":12,"nom":"Refuge Les Mistoufles","info":null,"type":null,"type_structure":"Refuge","domaine":null,"taille_personnel":null,"accueil_type":"Mixte","capacit\u00e9":null,"adresse":"Rue du Grand Launay, 29600 Saint-Martin-des-Champs","mail":"associationlesmistoufles@laposte.net","tel":"+33298628485","url":"https://refugelesmistoufles.fr/","prox_epa_nom":null,"prox_epa_distance":null,"prox_ville_nom":null,"prox_ville_distance":null,"access_voie":null,"date_creation":null,"date_modif":null,"last_modif_user_name":null,"lien_ext":null,"priorite":null,"creation_user_name":null,"Statut":null,"Frequence":null},"geometry":{"type":"Point","coordinates":[-3.857998640949329,48.57276183571621]}},{"type":"Feature","properties":{"fid":14,"nom":"La Soci\u00e9t\u00e9 Protectrice des Animaux (La SPA) - Refuge de Quimper","info":null,"type":null,"type_structure":"Refuge","domaine":null,"taille_personnel":null,"accueil_type":"Mixte","capacit\u00e9":null,"adresse":"35 All. Denis Papin, 29000 Quimper","mail":"quimper@la-spa.fr","tel":"+33298648735","url":"https://www.la-spa.fr/etablissement/refuge-spa-de-quimper-du-corniguel/","prox_epa_nom":null,"prox_epa_distance":null,"prox_ville_nom":null,"prox_ville_distance":null,"access_voie":null,"date_creation":null,"date_modif":null,"last_modif_user_name":null,"lien_ext":null,"priorite":null,"creation_user_name":null,"Statut":null,"Frequence":null},"geometry":{"type":"Point","coordinates":[-4.110093922778796,47.96879798744445]}},{"type":"Feature","properties":{"fid":15,"nom":"SPA de Cornouaille - Concarneau","info":null,"type":null,"type_structure":"Refuge","domaine":null,"taille_personnel":null,"accueil_type":"Mixte","capacit\u00e9":null,"adresse":"971 chemin de Kergrac'h, 29900 Concarneau","mail":"refugeconcarneau@gmail.com","tel":"+33298972695","url":"https://spadecornouaille.fr/","prox_epa_nom":null,"prox_epa_distance":null,"prox_ville_nom":null,"prox_ville_distance":null,"access_voie":null,"date_creation":null,"date_modif":null,"last_modif_user_name":null,"lien_ext":null,"priorite":null,"creation_user_name":null,"Statut":null,"Frequence":null},"geometry":{"type":"Point","coordinates":[-3.902553702767682,47.9342704114397]}}]}